#aV2013  1  8  0  0  0.00000000     288 DD+AD WGS84 FIT  NGA
## 1722 172800.00000000   300.00000000 56300 0.0000000000000
+   31     1  2  3  4  5  6  7  8  9 10 11 12 13 14 15 16 17
+         18 19 20 21 22 23 24 25 26 28 29 30 31 32  0  0  0
+          0  0  0  0  0  0  0  0  0  0  0  0  0  0  0  0  0
+          0  0  0  0  0  0  0  0  0  0  0  0  0  0  0  0  0
+          0  0  0  0  0  0  0  0  0  0  0  0  0  0  0  0  0
++         2  2  2  2  2  2  2  2  2  2  2  2  2  2  2  2  2
++         2  2  2  2  2  2  2  2  2  2  2  2  2  2  2  0  0
++         0  0  0  0  0  0  0  0  0  0  0  0  0  0  0  0  0
++         0  0  0  0  0  0  0  0  0  0  0  0  0  0  0  0  0
++         0  0  0  0  0  0  0  0  0  0  0  0  0  0  0  0  0
%c cc cc ccc ccc cccc cccc cccc cccc ccccc ccccc ccccc ccccc
%c cc cc ccc ccc cccc cccc cccc cccc ccccc ccccc ccccc ccccc
%f  0.0000000  0.000000000  0.00000000000  0.000000000000000
%f  0.0000000  0.000000000  0.00000000000  0.000000000000000
%i    0    0    0    0      0      0      0      0         0
%i    0    0    0    0      0      0      0      0         0
/*      NGA, ST. LOUIS,MO.                                  
/*   EPHEMERIS COMPUTED FROM  1 DAYS OF DATA
/*   EPOCHA SMOOTHER  
/* CCCCCCCCCCCCCCCCCCCCCCCCCCCCCCCCCCCCCCCCCCCCCCCCCCCCCCCCC
*  2013  1  8  1  5  0.00000000                                                 
P  1 -22122.503777 -13006.210409   6956.390486    292.056244                    
V  1  -4883.900328  -7843.155297 -30027.657795      0.022838                    
P  2  10929.767427  21189.473220  12390.775306    414.075809                    
V  2 -13284.154325  -8040.672773  25306.233598      0.013021                    
P  3  -6939.711483 -14463.829710 -21668.907642    152.204598                    
V  3  23731.214073 -11696.920118    446.091918      0.048328                    
P  4  -3531.204300  16559.499349  20119.523547     98.469527                    
V  4 -20656.429810 -16379.588554  10010.620409      0.110881                    
P  5   4854.972448  22666.364802 -12868.073840   -377.346003                    
V  5  -5820.034665  15527.678181  25361.424811     -0.020718                    
P  6    242.311913 -16417.984148 -20722.038094    396.427644                    
V  6  25105.416313  -9073.348444   7781.501338     -0.135620                    
P  7 -19110.170010   -499.410083 -18518.513660    166.339334                    
V  7 -16543.087330 -16671.253694  17203.961919      0.044183                    
P  8 -11187.505128   9018.044421 -22243.413300      3.875113                    
V  8 -19312.581299 -20804.767516    706.639146      0.001925                    
P  9  17037.658210  19711.065445  -5501.092684    212.132533                    
V  9  -6043.787955  -2635.165342 -31304.372365      0.026385                    
P 10  -8383.138966  24604.899834   3949.027020    -65.320790                    
V 10  -2418.214801  -6103.435100  31108.177688     -0.014401                    
P 11 -23088.605332 -13230.191214  -2765.241135   -341.289269                    
V 11   4751.163586  -3011.808757 -29628.473833     -0.037677                    
P 12  12726.149964   8834.092039  21584.099608    111.159043                    
V 12  -6565.008445  26557.029519  -6800.843826      0.020505                    
P 13 -26135.802805   4164.415831   2730.853348    154.193587                    
V 13   3075.724808  -2759.442686  31930.950717     -0.028580                    
P 14  17856.063227 -14206.115918  13670.170819    219.301010                    
V 14  16978.466587  -2496.315062 -25263.751902      0.004572                    
P 15  17863.088740   7584.311039 -18258.457556   -104.491727                    
V 15 -21147.638289   9480.387181 -16518.028773     -0.011184                    
P 16  -2531.724989 -23269.818848 -12235.134628   -251.594006                    
V 16   5744.720384 -14653.365784  27007.864773     -0.003145                    
P 17 -16155.169878  15258.978200  14560.411167     61.806277                    
V 17 -18093.949989   3104.455979 -23892.647315     -0.036650                    
P 18  15398.667754 -13227.331682 -16564.633459    233.287869                    
V 18  -1807.268528  22093.995120 -19238.725353      0.018662                    
P 19 -14996.020595 -10413.265449 -19506.806504   -337.908644                    
V 19  23570.158792  -6657.290659 -14224.012927     -0.033237                    
P 20 -14595.467228  -7378.354323  20763.346103     79.218412                    
V 20   4731.020887 -26472.587001  -5956.469977      0.013729                    
P 21  17572.350556  -3545.946547 -19230.754909   -273.214335                    
V 21  18192.610145  17936.693426  12417.782266     -0.023086                    
P 22  10331.254367 -23283.927258  -7096.513893    155.168208                    
V 22   1848.291768   9921.289989 -29240.103684      0.009923                    
P 23 -23322.226722  -2071.789944  12955.416613    126.126336                    
V 23  14807.299035  -6923.385846  25289.430429     -0.037793                    
P 24  21417.821475  15329.577550   3526.166345      1.037856                    
V 24   1532.515597   5058.283047 -31285.623021     -0.006541                    
P 25  15527.882134  -4967.251565  20915.471192     61.405299                    
V 25  -4320.650220  26285.065650   9510.928806      0.025029                    
P 26   5345.268713  14179.081189 -22460.818408   -146.504998                    
V 26 -26202.125094   6201.704764  -2042.496232      0.136716                    
P 28 -12308.948328  20910.161255  -9978.241518    221.391036                    
V 28   1254.175007 -13688.790980 -28782.163716      0.035254                    
P 29  25861.446056  -4469.041653   4002.455718    395.622097                    
V 29  -4101.680256   3929.068339  31340.842839      0.038224                    
P 30   1657.009362 -26498.517201  -1402.087296   -259.118148                    
V 30   2860.709777  -1079.427878  31711.464777      0.115492                    
P 31   -934.789760 -18388.943634  19230.404210    296.459444                    
V 31  18476.127799  15450.096972  16087.090842      0.019418                    
P 32  -9335.873660 -16428.765107  19016.697582   -524.148333                    
V 32   7871.444660 -22371.810800 -15080.713428     -0.034746                    
EOF
